{
    "type": "FeatureCollection",
    "features": [
        {
            "type": "Feature",
            "properties": {
                "hint": "Границы г. Вятки на 1812г."
            },
            "geometry": {
                "type": "Polygon",
                "coordinates": [
                    [
                        [
                            49.693917,
                            58.604995
                        ],
                        [
                            49.692828,
                            58.605563
                        ],
                        [
                            49.689078,
                            58.609362
                        ],
                        [
                            49.688156,
                            58.611038
                        ],
                        [
                            49.686611,
                            58.613854
                        ],
                        [
                            49.685238,
                            58.615687
                        ],
                        [
                            49.680667,
                            58.615486
                        ],
                        [
                            49.67629,
                            58.615374
                        ],
                        [
                            49.670882,
                            58.615195
                        ],
                        [
                            49.667792,
                            58.615017
                        ],
                        [
                            49.666891,
                            58.614927
                        ],
                        [
                            49.667149,
                            58.613161
                        ],
                        [
                            49.66732,
                            58.611642
                        ],
                        [
                            49.657064,
                            58.611351
                        ],
                        [
                            49.657235,
                            58.608311
                        ],
                        [
                            49.658587,
                            58.582807
                        ],
                        [
                            49.659553,
                            58.582011
                        ],
                        [
                            49.660711,
                            58.580926
                        ],
                        [
                            49.662235,
                            58.580311
                        ],
                        [
                            49.662964,
                            58.579763
                        ],
                        [
                            49.663844,
                            58.58002
                        ],
                        [
                            49.665137,
                            58.580644
                        ],
                        [
                            49.667369,
                            58.580946
                        ],
                        [
                            49.668635,
                            58.58103
                        ],
                        [
                            49.669418,
                            58.580856
                        ],
                        [
                            49.669718,
                            58.580499
                        ],
                        [
                            49.670351,
                            58.579995
                        ],
                        [
                            49.671113,
                            58.57985
                        ],
                        [
                            49.672111,
                            58.580046
                        ],
                        [
                            49.672991,
                            58.580152
                        ],
                        [
                            49.674444,
                            58.580177
                        ],
                        [
                            49.675769,
                            58.58032
                        ],
                        [
                            49.677325,
                            58.580487
                        ],
                        [
                            49.678967,
                            58.581007
                        ],
                        [
                            49.679675,
                            58.581421
                        ],
                        [
                            49.680495,
                            58.581888
                        ],
                        [
                            49.681504,
                            58.582492
                        ],
                        [
                            49.682121,
                            58.58282
                        ],
                        [
                            49.682765,
                            58.583323
                        ],
                        [
                            49.682936,
                            58.583692
                        ],
                        [
                            49.683859,
                            58.583882
                        ],
                        [
                            49.685726,
                            58.583927
                        ],
                        [
                            49.68858,
                            58.584061
                        ],
                        [
                            49.69021,
                            58.584352
                        ],
                        [
                            49.690876,
                            58.584721
                        ],
                        [
                            49.692335,
                            58.585493
                        ],
                        [
                            49.692635,
                            58.586108
                        ],
                        [
                            49.693472,
                            58.587584
                        ],
                        [
                            49.692914,
                            58.588523
                        ],
                        [
                            49.691927,
                            58.589329
                        ],
                        [
                            49.692142,
                            58.590626
                        ],
                        [
                            49.692356,
                            58.592214
                        ],
                        [
                            49.693558,
                            58.593064
                        ],
                        [
                            49.69433,
                            58.593958
                        ],
                        [
                            49.694931,
                            58.595032
                        ],
                        [
                            49.695446,
                            58.595792
                        ],
                        [
                            49.696047,
                            58.598431
                        ],
                        [
                            49.696004,
                            58.600957
                        ],
                        [
                            49.69639,
                            58.601695
                        ],
                        [
                            49.693917,
                            58.604996
                        ]
                    ]
                ]
            },
            "style": {
                "stroke": [
                    {
                        "color": "#ffff00",
                        "width": 1
                    }
                ],
                "fill": "#ffff0033"
            }
        }
    ]
}