{
    "type": "FeatureCollection",
    "features": [
        {
            "type": "Feature",
            "properties": {
                "hint": "Границы посада г. Хлынова в середине XVII века"
            },
            "geometry": {
                "type": "Polygon",
                "coordinates": [
                    [
                        [
                            49.689445,
                            58.605633
                        ],
                        [
                            49.689544,
                            58.606045
                        ],
                        [
                            49.689393,
                            58.606391
                        ],
                        [
                            49.689179,
                            58.607039
                        ],
                        [
                            49.688707,
                            58.60809
                        ],
                        [
                            49.688514,
                            58.609121
                        ],
                        [
                            49.687457,
                            58.608967
                        ],
                        [
                            49.686668,
                            58.608744
                        ],
                        [
                            49.685129,
                            58.608341
                        ],
                        [
                            49.683884,
                            58.607785
                        ],
                        [
                            49.683476,
                            58.60759
                        ],
                        [
                            49.683155,
                            58.607553
                        ],
                        [
                            49.682956,
                            58.607679
                        ],
                        [
                            49.68279,
                            58.607794
                        ],
                        [
                            49.682586,
                            58.607883
                        ],
                        [
                            49.682253,
                            58.607978
                        ],
                        [
                            49.682023,
                            58.608084
                        ],
                        [
                            49.68162,
                            58.608246
                        ],
                        [
                            49.680692,
                            58.608506
                        ],
                        [
                            49.68036,
                            58.608573
                        ],
                        [
                            49.680118,
                            58.608618
                        ],
                        [
                            49.679839,
                            58.60866
                        ],
                        [
                            49.679217,
                            58.60866
                        ],
                        [
                            49.678863,
                            58.608657
                        ],
                        [
                            49.678509,
                            58.608638
                        ],
                        [
                            49.677876,
                            58.608604
                        ],
                        [
                            49.677576,
                            58.608554
                        ],
                        [
                            49.6772,
                            58.608481
                        ],
                        [
                            49.676277,
                            58.608279
                        ],
                        [
                            49.675623,
                            58.608089
                        ],
                        [
                            49.675044,
                            58.607904
                        ],
                        [
                            49.674657,
                            58.607725
                        ],
                        [
                            49.674177,
                            58.607447
                        ],
                        [
                            49.673668,
                            58.607115
                        ],
                        [
                            49.672986,
                            58.606559
                        ],
                        [
                            49.672452,
                            58.605983
                        ],
                        [
                            49.672098,
                            58.60562
                        ],
                        [
                            49.67198,
                            58.605357
                        ],
                        [
                            49.671605,
                            58.604899
                        ],
                        [
                            49.671272,
                            58.604491
                        ],
                        [
                            49.670972,
                            58.604147
                        ],
                        [
                            49.67079,
                            58.603926
                        ],
                        [
                            49.67058,
                            58.603711
                        ],
                        [
                            49.670425,
                            58.603541
                        ],
                        [
                            49.670468,
                            58.603384
                        ],
                        [
                            49.67065,
                            58.603211
                        ],
                        [
                            49.670918,
                            58.602903
                        ],
                        [
                            49.67131,
                            58.602325
                        ],
                        [
                            49.672002,
                            58.60154
                        ],
                        [
                            49.672939,
                            58.600747
                        ],
                        [
                            49.673269,
                            58.600452
                        ],
                        [
                            49.673934,
                            58.600033
                        ],
                        [
                            49.674213,
                            58.599893
                        ],
                        [
                            49.674911,
                            58.599747
                        ],
                        [
                            49.67534,
                            58.599658
                        ],
                        [
                            49.675957,
                            58.599557
                        ],
                        [
                            49.67637,
                            58.599485
                        ],
                        [
                            49.676979,
                            58.599418
                        ],
                        [
                            49.677271,
                            58.599392
                        ],
                        [
                            49.67769,
                            58.599488
                        ],
                        [
                            49.678103,
                            58.599636
                        ],
                        [
                            49.678655,
                            58.599865
                        ],
                        [
                            49.67939,
                            58.600116
                        ],
                        [
                            49.679889,
                            58.600239
                        ],
                        [
                            49.680431,
                            58.600334
                        ],
                        [
                            49.681139,
                            58.600502
                        ],
                        [
                            49.681943,
                            58.600675
                        ],
                        [
                            49.684636,
                            58.601391
                        ],
                        [
                            49.684985,
                            58.601483
                        ],
                        [
                            49.685339,
                            58.601558
                        ],
                        [
                            49.685629,
                            58.601651
                        ],
                        [
                            49.685961,
                            58.60179
                        ],
                        [
                            49.686133,
                            58.601939
                        ],
                        [
                            49.686364,
                            58.602098
                        ],
                        [
                            49.686509,
                            58.602159
                        ],
                        [
                            49.687308,
                            58.602362
                        ]
                    ]
                ]
            },
            "style": {
                "stroke": [
                    {
                        "color": "#00ff00",
                        "width": 1
                    }
                ],
                "fill": "#00ff0022"
            }
        }
    ]
}