{
  "type": "FeatureCollection",
  "features": [
    {
      "type": "Feature",
      "properties": {
        "hint": "Территория города и прилегающих деревень к концу XVII века"
      },
      "geometry": {
        "type": "Polygon",
        "coordinates": [
          [
            [
              49.6878553,
              58.6115487
            ],
            [
              49.6849377,
              58.6112918
            ],
            [
              49.6840787,
              58.6111078
            ],
            [
              49.6833927,
              58.6109628
            ],
            [
              49.6827277,
              58.6108398
            ],
            [
              49.6818158,
              58.6106498
            ],
            [
              49.6786079,
              58.6100678
            ],
            [
              49.6767089,
              58.6089508
            ],
            [
              49.67511,
              58.6090848
            ],
            [
              49.674692,
              58.6089838
            ],
            [
              49.67437,
              58.6087828
            ],
            [
              49.6726751,
              58.6084588
            ],
            [
              49.6713551,
              58.6082748
            ],
            [
              49.6672142,
              58.6068718
            ],
            [
              49.6647783,
              58.6078158
            ],
            [
              49.6635554,
              58.6082908
            ],
            [
              49.6621284,
              58.6085988
            ],
            [
              49.6592965,
              58.6092248
            ],
            [
              49.6571296,
              58.6097718
            ],
            [
              49.6549406,
              58.6103088
            ],
            [
              49.6544257,
              58.6103648
            ],
            [
              49.6526657,
              58.6099958
            ],
            [
              49.6505208,
              58.6095258
            ],
            [
              49.6484179,
              58.6090238
            ],
            [
              49.6467009,
              58.6086768
            ],
            [
              49.6456499,
              58.6084258
            ],
            [
              49.644255,
              58.6087268
            ],
            [
              49.6416161,
              58.6090848
            ],
            [
              49.6401141,
              58.6094198
            ],
            [
              49.6388912,
              58.6096438
            ],
            [
              49.6377102,
              58.6099118
            ],
            [
              49.6363372,
              58.6083698
            ],
            [
              49.6383112,
              58.6078778
            ],
            [
              49.6395991,
              58.6074758
            ],
            [
              49.6406291,
              58.6072968
            ],
            [
              49.6409181,
              58.6062518
            ],
            [
              49.6408751,
              58.6041668
            ],
            [
              49.6407041,
              58.6032498
            ],
            [
              49.6407041,
              58.6021328
            ],
            [
              49.6403931,
              58.6007738
            ],
            [
              49.6403071,
              58.5999248
            ],
            [
              49.6403071,
              58.5994998
            ],
            [
              49.6403931,
              58.5988518
            ],
            [
              49.6401781,
              58.5980468
            ],
            [
              49.6401351,
              58.5973088
            ],
            [
              49.6401351,
              58.5968388
            ],
            [
              49.6414231,
              58.5970178
            ],
            [
              49.642581,
              58.5972188
            ],
            [
              49.643182,
              58.5966598
            ],
            [
              49.643826,
              58.5958108
            ],
            [
              49.644298,
              58.5950278
            ],
            [
              49.644598,
              58.5946248
            ],
            [
              49.6457569,
              58.5949268
            ],
            [
              49.6475809,
              58.5954418
            ],
            [
              49.6481389,
              58.5956538
            ],
            [
              49.6489538,
              58.5960338
            ],
            [
              49.6497908,
              58.5962688
            ],
            [
              49.6503488,
              58.5964698
            ],
            [
              49.6514648,
              58.5962578
            ],
            [
              49.6531597,
              58.5957658
            ],
            [
              49.6543617,
              58.5954078
            ],
            [
              49.6568286,
              58.5940438
            ],
            [
              49.6567646,
              58.5934508
            ],
            [
              49.6566996,
              58.5929148
            ],
            [
              49.6568286,
              58.5921768
            ],
            [
              49.6568716,
              58.5914498
            ],
            [
              49.6568716,
              58.5911808
            ],
            [
              49.6569576,
              58.5908568
            ],
            [
              49.6578585,
              58.5911808
            ],
            [
              49.6717841,
              58.5954048
            ],
            [
              49.6770839,
              58.5937898
            ],
            [
              49.6790799,
              58.5945498
            ],
            [
              49.6804748,
              58.5948288
            ],
            [
              49.6830497,
              58.5954108
            ],
            [
              49.6847447,
              58.5959468
            ],
            [
              49.6875556,
              58.5969978
            ],
            [
              49.6894435,
              58.5979818
            ],
            [
              49.6910315,
              58.5996148
            ],
            [
              49.6924474,
              58.6009108
            ],
            [
              49.6945933,
              58.6021188
            ],
            [
              49.6956233,
              58.6026328
            ]
          ]
        ]
      },
      "style": {
        "stroke": [
          {
            "color": "#ffc0cb",
            "width": 1
          }
        ],
        "fill": "#ffc0cb33"
      }
    }
  ]
}