{
  "type": "FeatureCollection",
  "features": [
    {
      "type": "Feature",
      "properties": {
        "hint": "Хлыновский Кремль"
      },
      "geometry": {
        "type": "Polygon",
        "coordinates": [
          [
            [
              49.6894424,
              58.6056318
            ],
            [
              49.6886594,
              58.6053938
            ],
            [
              49.6867974,
              58.6047628
            ],
            [
              49.6852584,
              58.6042368
            ],
            [
              49.6856554,
              58.6035328
            ],
            [
              49.6864384,
              58.6030188
            ],
            [
              49.6873075,
              58.6023623
            ],
            [
              49.6895335,
              58.6025436
            ],
            [
              49.6900864,
              58.6032088
            ],
            [
              49.6902364,
              58.6037838
            ],
            [
              49.6902414,
              58.6039548
            ],
            [
              49.6900964,
              58.6043828
            ],
            [
              49.6900244,
              58.6046658
            ],
            [
              49.6899614,
              58.6048208
            ],
            [
              49.6894424,
              58.6056318
            ]
          ]
        ]
      },
      "style": {
        "stroke": [
          {
            "color": "#ff0000",
            "width": 1
          }
        ],
        "fill": "#ff000022"
      }
    }
  ]
}